{"epoch":1784902576,"count":18312,"objects":[{"id":"64240","name":"STARLINK-11684","type":"PAYLOAD","l1":"1 64240U 25119H   26205.14206795  .00205027  00000-0  15589-2 0  9999","l2":"2 64240  43.0000 106.7574 0001272 269.8231  90.2491 15.70890164 66703"},{"id":"64241","name":"STARLINK-11689","type":"PAYLOAD","l1":"1 64241U 25119J   26205.06786459  .00269283  00000-0  20324-2 0  9998","l2":"2 64241  43.0007 107.0543 0001663 262.3371  97.7308 15.70868551 66690"},{"id":"64242","name":"STARLINK-11690","type":"PAYLOAD","l1":"1 64242U 25119K   26205.12613748  .00191563  00000-0  14595-2 0  9994","l2":"2 64242  43.0010 106.6280 0001230 262.1733  97.8995 15.70884245 66701"},{"id":"64243","name":"STARLINK-11694","type":"PAYLOAD","l1":"1 64243U 25119L   26205.25002315  .00132023  00000-0  68732-3 0  9990","l2":"2 64243  42.9913 104.2932 0008627 224.9649  22.7489 15.79733684  5931"},{"id":"64244","name":"STARLINK-11710","type":"PAYLOAD","l1":"1 64244U 25119M   26205.14737288  .00143711  00000-0  11023-2 0  9999","l2":"2 64244  43.0007 106.7973 0001949 252.3676 107.6979 15.70880000 66700"},{"id":"64245","name":"STARLINK-11704","type":"PAYLOAD","l1":"1 64245U 25119N   26204.73402028  .00254709  00000-0  19195-2 0  9993","l2":"2 64245  43.0010 108.8401 0001376 245.1774 114.8950 15.70949490 66648"},{"id":"64246","name":"STARLINK-34203","type":"PAYLOAD","l1":"1 64246U 25119P   26205.17254884  .00022630  00000-0  82916-3 0  9996","l2":"2 64246  43.0003 256.1809 0001723 275.5444  84.5211 15.27587484 65057"},{"id":"64247","name":"STARLINK-33865","type":"PAYLOAD","l1":"1 64247U 25119Q   26205.15712509  .00014481  00000-0  53469-3 0  9994","l2":"2 64247  42.9990 256.0590 0001207 266.4360  93.6354 15.27582381 65016"},{"id":"64248","name":"STARLINK-34234","type":"PAYLOAD","l1":"1 64248U 25119R   26205.18282238  .00036697  00000-0  13355-2 0  9991","l2":"2 64248  42.9996 256.2518 0001462 273.6908  86.3777 15.27602948 65049"},{"id":"64249","name":"STARLINK-34256","type":"PAYLOAD","l1":"1 64249U 25119S   26205.16483280  .00005813  00000-0  22055-3 0  9994","l2":"2 64249  42.9961 256.1157 0000715 269.9951  90.0818 15.27582773 65047"},{"id":"64250","name":"STARLINK-34229","type":"PAYLOAD","l1":"1 64250U 25119T   26205.20081161  .00021517  00000-0  78890-3 0  9990","l2":"2 64250  43.0019 256.3958 0001855 268.2088  91.8551 15.27590694 65049"},{"id":"64251","name":"STARLINK-34224","type":"PAYLOAD","l1":"1 64251U 25119U   26205.22636575  .00023197  00000-0  84934-3 0  9990","l2":"2 64251  42.9993 255.7218 0001039 280.8124  79.2611 15.27598725 65057"},{"id":"64252","name":"STARLINK-34215","type":"PAYLOAD","l1":"1 64252U 25119V   26205.17896923  .00027041  00000-0  98807-3 0  9996","l2":"2 64252  42.9962 256.2251 0001000 283.3691  76.7049 15.27596468 65040"},{"id":"64253","name":"STARLINK-33893","type":"PAYLOAD","l1":"1 64253U 25119W   26205.19438811  .00018924  00000-0  69520-3 0  9997","l2":"2 64253  43.0016 256.3390 0001239 264.0309  96.0401 15.27591567 65046"},{"id":"64254","name":"STARLINK-34183","type":"PAYLOAD","l1":"1 64254U 25119X   26205.13928119  .00024650  00000-0  90136-3 0  9997","l2":"2 64254  43.0027 256.7898 0002749 269.9936  90.0601 15.27612438 65039"},{"id":"64255","name":"STARLINK-34211","type":"PAYLOAD","l1":"1 64255U 25119Y   26205.20852095  .00023161  00000-0  84800-3 0  9992","l2":"2 64255  43.0009 256.4500 0002067 282.2692  77.7928 15.27599828 65049"},{"id":"64256","name":"STARLINK-34329","type":"PAYLOAD","l1":"1 64256U 25120A   26205.25723269  .00028114  00000-0  83992-3 0  9994","l2":"2 64256  53.1565 198.2113 0001133  72.8435 287.2691 15.34406372 64888"},{"id":"64257","name":"STARLINK-34352","type":"PAYLOAD","l1":"1 64257U 25120B   26205.25370300 -.01442296  00000-0 -50436-1 0  9998","l2":"2 64257  53.1585 201.7337 0013975  81.4237 278.8347 15.32089511 64785"},{"id":"64258","name":"STARLINK-34308","type":"PAYLOAD","l1":"1 64258U 25120C   26205.26356309  .00026965  00000-0  80679-3 0  9995","l2":"2 64258  53.1564 198.2486 0000761  75.1294 284.9793 15.34382345 64832"},{"id":"64259","name":"STARLINK-34306","type":"PAYLOAD","l1":"1 64259U 25120D   26205.24881868  .00037229  00000-0  11071-2 0  9991","l2":"2 64259  53.1576 198.1544 0001252  72.6831 287.4309 15.34413098 64836"},{"id":"64260","name":"STARLINK-34281","type":"PAYLOAD","l1":"1 64260U 25120E   26205.26564654  .00030435  00000-0  90833-3 0  9992","l2":"2 64260  53.1560 198.2610 0001152  98.9960 261.1173 15.34397313 64838"},{"id":"64261","name":"STARLINK-34297","type":"PAYLOAD","l1":"1 64261U 25120F   26205.20261393  .00017774  00000-0  53588-3 0  9998","l2":"2 64261  53.1562 198.5760 0001475 116.3070 243.8084 15.34402118 64765"},{"id":"64262","name":"STARLINK-34325","type":"PAYLOAD","l1":"1 64262U 25120G   26205.25560093  .00037704  00000-0  11210-2 0  9993","l2":"2 64262  53.1587 201.7455 0001076 100.5495 259.5629 15.34411113 64836"},{"id":"64263","name":"STARLINK-34276","type":"PAYLOAD","l1":"1 64263U 25120H   26205.31020026  .00013658  00000-0  45091-3 0  9995","l2":"2 64263  53.1581 201.3777 0001237  78.2104 281.9036 15.31712048 64841"},{"id":"64264","name":"STARLINK-34333","type":"PAYLOAD","l1":"1 64264U 25120J   26205.24672251  .00037997  00000-0  11301-2 0  9999","l2":"2 64264  53.1574 198.1442 0000977  86.2051 273.9063 15.34397004 64830"},{"id":"64265","name":"STARLINK-34240","type":"PAYLOAD","l1":"1 64265U 25120K   26205.25139320  .00033835  00000-0  10074-2 0  9999","l2":"2 64265  53.1584 201.7212 0001076  87.3739 272.7387 15.34420353 64834"},{"id":"64266","name":"STARLINK-34315","type":"PAYLOAD","l1":"1 64266U 25120L   26205.27034416  .00042992  00000-0  12765-2 0  9995","l2":"2 64266  53.1580 201.8372 0001063 103.3961 256.7160 15.34392947 64772"},{"id":"64267","name":"STARLINK-34321","type":"PAYLOAD","l1":"1 64267U 25120M   26205.25302550  .00030485  00000-0  90971-3 0  9991","l2":"2 64267  53.1574 198.1790 0001222  79.8241 280.2899 15.34399696 64884"},{"id":"64268","name":"STARLINK-34319","type":"PAYLOAD","l1":"1 64268U 25120N   26205.26985858  .00026433  00000-0  79046-3 0  9999","l2":"2 64268  53.1559 198.2820 0001109  82.6408 277.4721 15.34409476 64873"},{"id":"64269","name":"STARLINK-34298","type":"PAYLOAD","l1":"1 64269U 25120P   26205.25512733  .00031707  00000-0  94517-3 0  9997","l2":"2 64269  53.1567 198.1951 0001216  85.0032 275.1109 15.34414270 64789"}]}