OBJECT_NAME,OBJECT_ID,EPOCH,MEAN_MOTION,ECCENTRICITY,INCLINATION,RA_OF_ASC_NODE,ARG_OF_PERICENTER,MEAN_ANOMALY,EPHEMERIS_TYPE,CLASSIFICATION_TYPE,NORAD_CAT_ID,ELEMENT_SET_NO,REV_AT_EPOCH,BSTAR,MEAN_MOTION_DOT,MEAN_MOTION_DDOT
STARLINK-11684 [DTC],2025-119H,2026-07-24T03:24:34.670880,15.70890164,.00012721,43.0000,106.7574,269.8231,90.2491,0,U,64240,999,6670,.15589412E-2,.205027E-2,0
STARLINK-11689 [DTC],2025-119J,2026-07-24T01:37:43.500576,15.70868551,.00016629,43.0007,107.0543,262.3371,97.7308,0,U,64241,999,6669,.20323847E-2,.269283E-2,0
STARLINK-11690 [DTC],2025-119K,2026-07-24T03:01:38.278272,15.70884245,.00012304,43.0010,106.6280,262.1733,97.8995,0,U,64242,999,6670,.14595359E-2,.191563E-2,0
STARLINK-11694 [DTC],2025-119L,2026-07-24T06:00:02.000160,15.79733684,.00086268,42.9913,104.2932,224.9649,22.7489,0,U,64243,999,593,.68731908E-3,.132023E-2,0
STARLINK-11710 [DTC],2025-119M,2026-07-24T03:32:13.016832,15.70880000,.00019486,43.0007,106.7973,252.3676,107.6979,0,U,64244,999,6670,.11023322E-2,.143711E-2,0
STARLINK-11704 [DTC],2025-119N,2026-07-23T17:36:59.352192,15.70949490,.00013761,43.0010,108.8401,245.1774,114.8950,0,U,64245,999,6664,.19194513E-2,.254709E-2,0
STARLINK-34203,2025-119P,2026-07-24T04:08:28.219776,15.27587484,.00017233,43.0003,256.1809,275.5444,84.5211,0,U,64246,999,6505,.82916037E-3,.2263E-3,0
STARLINK-33865,2025-119Q,2026-07-24T03:46:15.607776,15.27582381,.00012069,42.9990,256.0590,266.4360,93.6354,0,U,64247,999,6501,.53468869E-3,.14481E-3,0
STARLINK-34234,2025-119R,2026-07-24T04:23:15.853632,15.27602948,.00014617,42.9996,256.2518,273.6908,86.3777,0,U,64248,999,6504,.1335501E-2,.36697E-3,0
STARLINK-34256,2025-119S,2026-07-24T03:57:21.553920,15.27582773,.00007154,42.9961,256.1157,269.9951,90.0818,0,U,64249,999,6504,.22055198E-3,.5813E-4,0
STARLINK-34229,2025-119T,2026-07-24T04:49:10.123104,15.27590694,.0001855,43.0019,256.3958,268.2088,91.8551,0,U,64250,999,6504,.78889933E-3,.21517E-3,0
STARLINK-34224,2025-119U,2026-07-24T05:25:58.000800,15.27598725,.0001039,42.9993,255.7218,280.8124,79.2611,0,U,64251,999,6505,.84934276E-3,.23197E-3,0
STARLINK-34215,2025-119V,2026-07-24T04:17:42.941472,15.27596468,.00010002,42.9962,256.2251,283.3691,76.7049,0,U,64252,999,6504,.98807305E-3,.27041E-3,0
STARLINK-33893,2025-119W,2026-07-24T04:39:55.132704,15.27591567,.0001239,43.0016,256.3390,264.0309,96.0401,0,U,64253,999,6504,.69519843E-3,.18924E-3,0
STARLINK-34183,2025-119X,2026-07-24T03:20:33.894816,15.27612438,.00027487,43.0027,256.7898,269.9936,90.0601,0,U,64254,999,6503,.90135606E-3,.2465E-3,0
STARLINK-34211,2025-119Y,2026-07-24T05:00:16.210080,15.27599828,.00020667,43.0009,256.4500,282.2692,77.7928,0,U,64255,999,6504,.84799683E-3,.23161E-3,0
STARLINK-34329,2025-120A,2026-07-24T06:10:24.904416,15.34406372,.00011333,53.1565,198.2113,72.8435,287.2691,0,U,64256,999,6488,.83992354E-3,.28114E-3,0
STARLINK-34352,2025-120B,2026-07-24T06:05:19.939200,15.32089511,.00139751,53.1585,201.7337,81.4237,278.8347,0,U,64257,999,6478,-.50436317E-1,-.1442296E-1,0
STARLINK-34308,2025-120C,2026-07-24T06:19:31.850976,15.34382345,.00007606,53.1564,198.2486,75.1294,284.9793,0,U,64258,999,6483,.80678542E-3,.26965E-3,0
STARLINK-34306,2025-120D,2026-07-24T05:58:17.933952,15.34413098,.00012523,53.1576,198.1544,72.6831,287.4309,0,U,64259,999,6483,.11070587E-2,.37229E-3,0
STARLINK-34281,2025-120E,2026-07-24T06:22:31.861056,15.34397313,.00011523,53.1560,198.2610,98.9960,261.1173,0,U,64260,999,6483,.90832954E-3,.30435E-3,0
STARLINK-34297,2025-120F,2026-07-24T04:51:45.843552,15.34402118,.00014754,53.1562,198.5760,116.3070,243.8084,0,U,64261,999,6476,.53588268E-3,.17774E-3,0
STARLINK-34325,2025-120G,2026-07-24T06:08:03.920352,15.34411113,.00010763,53.1587,201.7455,100.5495,259.5629,0,U,64262,999,6483,.11210434E-2,.37704E-3,0
STARLINK-34276,2025-120H,2026-07-24T07:26:41.302464,15.31712048,.00012368,53.1581,201.3777,78.2104,281.9036,0,U,64263,999,6484,.45090693E-3,.13658E-3,0
STARLINK-34333,2025-120J,2026-07-24T05:55:16.824864,15.34397004,.00009768,53.1574,198.1442,86.2051,273.9063,0,U,64264,999,6483,.11301394E-2,.37997E-3,0
STARLINK-34240,2025-120K,2026-07-24T06:02:00.372480,15.34420353,.00010756,53.1584,201.7212,87.3739,272.7387,0,U,64265,999,6483,.10073715E-2,.33835E-3,0
STARLINK-34315,2025-120L,2026-07-24T06:29:17.735424,15.34392947,.00010633,53.1580,201.8372,103.3961,256.7160,0,U,64266,999,6477,.1276548E-2,.42992E-3,0
STARLINK-34321,2025-120M,2026-07-24T06:04:21.403200,15.34399696,.00012218,53.1574,198.1790,79.8241,280.2899,0,U,64267,999,6488,.90971242E-3,.30485E-3,0
STARLINK-34319,2025-120N,2026-07-24T06:28:35.781312,15.34409476,.00011086,53.1559,198.2820,82.6408,277.4721,0,U,64268,999,6487,.79045929E-3,.26433E-3,0
STARLINK-34298,2025-120P,2026-07-24T06:07:23.001312,15.34414270,.00012163,53.1567,198.1951,85.0032,275.1109,0,U,64269,999,6478,.94517152E-3,.31707E-3,0
